0 COSMOS 2251 DEB
1 34727U 93036YV  13282.84582354  .00011671  00000-0  16202-2 0   472
2 34727 073.9344 331.8716 0079163 184.9257 293.3571 14.75793458243569
0 COSMOS 2251 DEB
1 34727U 93036YV  13287.17251003  .00009861  00000-0  13683-2 0   497
2 34727 073.9342 323.3515 0078700 175.4869 240.9975 14.75874701244209
0 COSMOS 2251 DEB
1 34727U 93036YV  13288.27072332  .00016803  00000-0  23241-2 0   502
2 34727 073.9339 321.1888 0078599 173.0611 316.0413 14.75906190244366
0 COSMOS 2251 DEB
1 34727U 93036YV  13289.21750627  .00014308  00000-0  19797-2 0   517
2 34727 073.9335 319.3242 0078472 170.9900 306.5896 14.75929951244507
0 COSMOS 2251 DEB
1 34727U 93036YV  13290.83347242  .00011684  00000-0  16170-2 0   529
2 34727 073.9331 316.1411 0078307 167.4362 252.8992 14.75968034244747
0 COSMOS 2251 DEB
1 34727U 93036YV  13293.13813388  .00011230  00000-0  15531-2 0   532
2 34727 073.9330 311.6007 0078124 162.3273 258.9437 14.76016189245084
0 COSMOS 2251 DEB
1 34727U 93036YV  13295.45325992  .00016217  00000-0  22370-2 0   548
2 34727 073.9335 307.0394 0077895 157.1523 321.0474 14.76063654245421
